[
	{"cityName":"Marine Jetty","CityId":1,"stateId":1,"zipcode":744101},
	{"cityName":"Shadipur","CityId":2,"stateId":1,"zipcode":744106},
	{"cityName":"Diglipur","CityId":3,"stateId":1,"zipcode":744202},
	{"cityName":"Husnabad","CityId":4,"stateId":2,"zipcode":505467},
	{"cityName":"Lallapet","CityId":5,"stateId":2,"zipcode":500017},
	{"cityName":"Fatehnagar","CityId":6,"stateId":2,"zipcode":500018},
	{"cityName":"Itanagar","CityId":7,"stateId":3,"zipcode":791111},
	{"cityName":"Panchali","CityId":8,"stateId":3,"zipcode":786001},
	{"cityName":"Sonitpur","CityId":9,"stateId":4,"zipcode":784001},
	{"cityName":"Dispur","CityId":10,"stateId":4,"zipcode":781005},
	{"cityName":"Patna","CityId":11,"stateId":5,"zipcode":800001},
	{"cityName":"Machuatoli","CityId":12,"stateId":5,"zipcode":800004},
	{"cityName":"Mani Mazra","CityId":13,"stateId":6,"zipcode":160101},
	{"cityName":"Sector 26 Chandigarh","CityId":14,"stateId":6,"zipcode":160026},
	{"cityName":"Bhilai Khursipur","CityId":15,"stateId":7,"zipcode":490011},
	{"cityName":"Raipur Karchulian","CityId":16,"stateId":7,"zipcode":486114},
	{"cityName":"Calangute","CityId":17,"stateId":8,"zipcode":403516},
	{"cityName":"Ponda","CityId":18,"stateId":8,"zipcode":403401},
	{"cityName":"Panaji Secretariat","CityId":19,"stateId":8,"zipcode":403001},
	{"cityName":"Adipur","CityId":20,"stateId":9,"zipcode":370205},
	{"cityName":"Halol","CityId":21,"stateId":9,"zipcode":389350},
	{"cityName":"Faridabad","CityId":22,"stateId":10,"zipcode":121001},
	{"cityName":"Combermere","CityId":23,"stateId":10,"zipcode":171001},
	{"cityName":"Katra","CityId":24,"stateId":11,"zipcode":182301},
	{"cityName":"Ramgarh","CityId":25,"stateId":11,"zipcode":814102},
	{"cityName":"Madhavanagar","CityId":26,"stateId":14,"zipcode":560001},
	{"cityName":"Indore City","CityId":27,"stateId":15,"zipcode":452002},
	{"cityName":"Aligarh","CityId":28,"stateId":16,"zipcode":202001}
]